ONEWEB-0572             
1 55151U 23004M   25297.73753395  .00000050  00000+0  95226-4 0  9995
2 55151  87.9121  52.6857 0001854  96.9861 263.1481 13.17648666136471
ONEWEB-0573             
1 55152U 23004N   25297.66956361  .00000064  00000+0  12942-3 0  9994
2 55152  87.9211  22.2727 0002552  88.4926 271.6498 13.18685635138657
ONEWEB-0588             
1 55153U 23004P   25297.73883612 -.00000008  00000+0 -52442-4 0  9991
2 55153  87.9219  22.2487 0001992  88.5346 271.6014 13.18684869138666
ONEWEB-0598             
1 55154U 23004Q   25297.78470822 -.00000616  00000+0 -17736-2 0  9992
2 55154  87.8830  67.9572 0002224 103.2154 256.9222 13.11417007135044
ONEWEB-0599             
1 55155U 23004R   25297.77465288 -.00000025  00000+0 -97473-4 0  9994
2 55155  87.9123  52.6815 0001812 105.0113 255.1219 13.17649194136485
ONEWEB-0614             
1 55156U 23004S   25297.77963600 -.00000570  00000+0 -16456-2 0  9991
2 55156  87.8827  67.9672 0001462  86.1841 273.9454 13.11416761134982
ONEWEB-0616             
1 55157U 23004T   25297.74091250 -.00000002  00000+0 -37858-4 0  9993
2 55157  87.9121  52.6789 0001859 133.8350 226.2936 13.17649180136691
ONEWEB-0617             
1 55158U 23004U   25297.76775794 -.00000334  00000+0 -97714-3 0  9992
2 55158  87.8832  67.9487 0001691  86.5158 273.6163 13.11416523135007
ONEWEB-0618             
1 55159U 23004V   25297.65875661  .00006499  00000+0  40155-3 0  9998
2 55159  86.9063 273.0901 0016797  87.9590 272.3572 15.09580769146682
ONEWEB-0619             
1 55160U 23004W   25297.77296372  .00000052  00000+0  10089-3 0  9991
2 55160  87.9122  52.6468 0001194 101.0640 259.0626 13.17647942136594
ONEWEB-0620             
1 55161U 23004X   25297.76267194 -.00000193  00000+0 -57960-3 0  9998
2 55161  87.8826  67.9699 0001787  95.4547 264.6785 13.11416287134978
ONEWEB-0621             
1 55162U 23004Y   25297.78980311 -.00000294  00000+0 -86653-3 0  9997
2 55162  87.8844  67.9296 0001394  93.6272 266.5015 13.11417557134957
ONEWEB-0622             
1 55163U 23004Z   25297.79490071 -.00000108  00000+0 -34065-3 0  9992
2 55163  87.8831  67.9430 0001815  72.4135 287.7191 13.11419283134942
ONEWEB-0623             
1 55164U 23004AA  25297.76791581  .00000012  00000+0 -17646-5 0  9991
2 55164  87.9113  52.7009 0001392  73.2041 286.9243 13.17650326136588
ONEWEB-0624             
1 55165U 23004AB  25297.78447698 -.00000113  00000+0 -34637-3 0  9991
2 55165  87.8962  37.3975 0001552  93.3642 266.7664 13.12917317137180
ONEWEB-0625             
1 55166U 23004AC  25297.75777285 -.00000033  00000+0 -11719-3 0  9994
2 55166  87.9110  52.6987 0001730 105.2647 254.8676 13.17648266136578
ONEWEB-0626             
1 55167U 23004AD  25297.74766383  .00000040  00000+0  69998-4 0  9990
2 55167  87.9114  52.7005 0002259 102.0707 258.0678 13.17649209136570
