[{"OBJECT_NAME":"ONEWEB-0572","OBJECT_ID":"2023-004M","EPOCH":"2025-10-24T17:42:02.933280","MEAN_MOTION":13.17648666,"ECCENTRICITY":0.0001854,"INCLINATION":87.9121,"RA_OF_ASC_NODE":52.6857,"ARG_OF_PERICENTER":96.9861,"MEAN_ANOMALY":263.1481,"EPHEMERIS_TYPE":0,"CLASSIFICATION_TYPE":"U","NORAD_CAT_ID":55151,"ELEMENT_SET_NO":999,"REV_AT_EPOCH":13647,"BSTAR":9.5226e-5,"MEAN_MOTION_DOT":5.0e-7,"MEAN_MOTION_DDOT":0},{"OBJECT_NAME":"ONEWEB-0573","OBJECT_ID":"2023-004N","EPOCH":"2025-10-24T16:04:10.295904","MEAN_MOTION":13.18685635,"ECCENTRICITY":0.0002552,"INCLINATION":87.9211,"RA_OF_ASC_NODE":22.2727,"ARG_OF_PERICENTER":88.4926,"MEAN_ANOMALY":271.6498,"EPHEMERIS_TYPE":0,"CLASSIFICATION_TYPE":"U","NORAD_CAT_ID":55152,"ELEMENT_SET_NO":999,"REV_AT_EPOCH":13865,"BSTAR":0.00012942,"MEAN_MOTION_DOT":6.4e-7,"MEAN_MOTION_DDOT":0},{"OBJECT_NAME":"ONEWEB-0588","OBJECT_ID":"2023-004P","EPOCH":"2025-10-24T17:43:55.440768","MEAN_MOTION":13.18684869,"ECCENTRICITY":0.0001992,"INCLINATION":87.9219,"RA_OF_ASC_NODE":22.2487,"ARG_OF_PERICENTER":88.5346,"MEAN_ANOMALY":271.6014,"EPHEMERIS_TYPE":0,"CLASSIFICATION_TYPE":"U","NORAD_CAT_ID":55153,"ELEMENT_SET_NO":999,"REV_AT_EPOCH":13866,"BSTAR":-5.2442e-5,"MEAN_MOTION_DOT":-8.0e-8,"MEAN_MOTION_DDOT":0},{"OBJECT_NAME":"ONEWEB-0598","OBJECT_ID":"2023-004Q","EPOCH":"2025-10-24T18:49:58.790208","MEAN_MOTION":13.11417007,"ECCENTRICITY":0.0002224,"INCLINATION":87.883,"RA_OF_ASC_NODE":67.9572,"ARG_OF_PERICENTER":103.2154,"MEAN_ANOMALY":256.9222,"EPHEMERIS_TYPE":0,"CLASSIFICATION_TYPE":"U","NORAD_CAT_ID":55154,"ELEMENT_SET_NO":999,"REV_AT_EPOCH":13504,"BSTAR":-0.0017736,"MEAN_MOTION_DOT":-6.16e-6,"MEAN_MOTION_DDOT":0},{"OBJECT_NAME":"ONEWEB-0599","OBJECT_ID":"2023-004R","EPOCH":"2025-10-24T18:35:30.008832","MEAN_MOTION":13.17649194,"ECCENTRICITY":0.0001812,"INCLINATION":87.9123,"RA_OF_ASC_NODE":52.6815,"ARG_OF_PERICENTER":105.0113,"MEAN_ANOMALY":255.1219,"EPHEMERIS_TYPE":0,"CLASSIFICATION_TYPE":"U","NORAD_CAT_ID":55155,"ELEMENT_SET_NO":999,"REV_AT_EPOCH":13648,"BSTAR":-9.7473e-5,"MEAN_MOTION_DOT":-2.5e-7,"MEAN_MOTION_DDOT":0},{"OBJECT_NAME":"ONEWEB-0614","OBJECT_ID":"2023-004S","EPOCH":"2025-10-24T18:42:40.550400","MEAN_MOTION":13.11416761,"ECCENTRICITY":0.0001462,"INCLINATION":87.8827,"RA_OF_ASC_NODE":67.9672,"ARG_OF_PERICENTER":86.1841,"MEAN_ANOMALY":273.9454,"EPHEMERIS_TYPE":0,"CLASSIFICATION_TYPE":"U","NORAD_CAT_ID":55156,"ELEMENT_SET_NO":999,"REV_AT_EPOCH":13498,"BSTAR":-0.0016456,"MEAN_MOTION_DOT":-5.7e-6,"MEAN_MOTION_DDOT":0},{"OBJECT_NAME":"ONEWEB-0616","OBJECT_ID":"2023-004T","EPOCH":"2025-10-24T17:46:54.840000","MEAN_MOTION":13.1764918,"ECCENTRICITY":0.0001859,"INCLINATION":87.9121,"RA_OF_ASC_NODE":52.6789,"ARG_OF_PERICENTER":133.835,"MEAN_ANOMALY":226.2936,"EPHEMERIS_TYPE":0,"CLASSIFICATION_TYPE":"U","NORAD_CAT_ID":55157,"ELEMENT_SET_NO":999,"REV_AT_EPOCH":13669,"BSTAR":-3.7858e-5,"MEAN_MOTION_DOT":-2.0e-8,"MEAN_MOTION_DDOT":0},{"OBJECT_NAME":"ONEWEB-0617","OBJECT_ID":"2023-004U","EPOCH":"2025-10-24T18:25:34.286016","MEAN_MOTION":13.11416523,"ECCENTRICITY":0.0001691,"INCLINATION":87.8832,"RA_OF_ASC_NODE":67.9487,"ARG_OF_PERICENTER":86.5158,"MEAN_ANOMALY":273.6163,"EPHEMERIS_TYPE":0,"CLASSIFICATION_TYPE":"U","NORAD_CAT_ID":55158,"ELEMENT_SET_NO":999,"REV_AT_EPOCH":13500,"BSTAR":-0.00097714,"MEAN_MOTION_DOT":-3.34e-6,"MEAN_MOTION_DDOT":0},{"OBJECT_NAME":"ONEWEB-0618","OBJECT_ID":"2023-004V","EPOCH":"2025-10-24T15:48:36.571104","MEAN_MOTION":15.09580769,"ECCENTRICITY":0.0016797,"INCLINATION":86.9063,"RA_OF_ASC_NODE":273.0901,"ARG_OF_PERICENTER":87.959,"MEAN_ANOMALY":272.3572,"EPHEMERIS_TYPE":0,"CLASSIFICATION_TYPE":"U","NORAD_CAT_ID":55159,"ELEMENT_SET_NO":999,"REV_AT_EPOCH":14668,"BSTAR":0.00040155,"MEAN_MOTION_DOT":6.499e-5,"MEAN_MOTION_DDOT":0},{"OBJECT_NAME":"ONEWEB-0619","OBJECT_ID":"2023-004W","EPOCH":"2025-10-24T18:33:04.065408","MEAN_MOTION":13.17647942,"ECCENTRICITY":0.0001194,"INCLINATION":87.9122,"RA_OF_ASC_NODE":52.6468,"ARG_OF_PERICENTER":101.064,"MEAN_ANOMALY":259.0626,"EPHEMERIS_TYPE":0,"CLASSIFICATION_TYPE":"U","NORAD_CAT_ID":55160,"ELEMENT_SET_NO":999,"REV_AT_EPOCH":13659,"BSTAR":0.00010089,"MEAN_MOTION_DOT":5.2e-7,"MEAN_MOTION_DDOT":0},{"OBJECT_NAME":"ONEWEB-0620","OBJECT_ID":"2023-004X","EPOCH":"2025-10-24T18:18:14.855616","MEAN_MOTION":13.11416287,"ECCENTRICITY":0.0001787,"INCLINATION":87.8826,"RA_OF_ASC_NODE":67.9699,"ARG_OF_PERICENTER":95.4547,"MEAN_ANOMALY":264.6785,"EPHEMERIS_TYPE":0,"CLASSIFICATION_TYPE":"U","NORAD_CAT_ID":55161,"ELEMENT_SET_NO":999,"REV_AT_EPOCH":13497,"BSTAR":-0.0005796,"MEAN_MOTION_DOT":-1.93e-6,"MEAN_MOTION_DDOT":0},{"OBJECT_NAME":"ONEWEB-0621","OBJECT_ID":"2023-004Y","EPOCH":"2025-10-24T18:57:18.988704","MEAN_MOTION":13.11417557,"ECCENTRICITY":0.0001394,"INCLINATION":87.8844,"RA_OF_ASC_NODE":67.9296,"ARG_OF_PERICENTER":93.6272,"MEAN_ANOMALY":266.5015,"EPHEMERIS_TYPE":0,"CLASSIFICATION_TYPE":"U","NORAD_CAT_ID":55162,"ELEMENT_SET_NO":999,"REV_AT_EPOCH":13495,"BSTAR":-0.00086653,"MEAN_MOTION_DOT":-2.94e-6,"MEAN_MOTION_DDOT":0},{"OBJECT_NAME":"ONEWEB-0622","OBJECT_ID":"2023-004Z","EPOCH":"2025-10-24T19:04:39.421344","MEAN_MOTION":13.11419283,"ECCENTRICITY":0.0001815,"INCLINATION":87.8831,"RA_OF_ASC_NODE":67.943,"ARG_OF_PERICENTER":72.4135,"MEAN_ANOMALY":287.7191,"EPHEMERIS_TYPE":0,"CLASSIFICATION_TYPE":"U","NORAD_CAT_ID":55163,"ELEMENT_SET_NO":999,"REV_AT_EPOCH":13494,"BSTAR":-0.00034065,"MEAN_MOTION_DOT":-1.08e-6,"MEAN_MOTION_DDOT":0},{"OBJECT_NAME":"ONEWEB-0623","OBJECT_ID":"2023-004AA","EPOCH":"2025-10-24T18:25:47.925984","MEAN_MOTION":13.17650326,"ECCENTRICITY":0.0001392,"INCLINATION":87.9113,"RA_OF_ASC_NODE":52.7009,"ARG_OF_PERICENTER":73.2041,"MEAN_ANOMALY":286.9243,"EPHEMERIS_TYPE":0,"CLASSIFICATION_TYPE":"U","NORAD_CAT_ID":55164,"ELEMENT_SET_NO":999,"REV_AT_EPOCH":13658,"BSTAR":-1.7646e-6,"MEAN_MOTION_DOT":1.2e-7,"MEAN_MOTION_DDOT":0},{"OBJECT_NAME":"ONEWEB-0624","OBJECT_ID":"2023-004AB","EPOCH":"2025-10-24T18:49:38.811072","MEAN_MOTION":13.12917317,"ECCENTRICITY":0.0001552,"INCLINATION":87.8962,"RA_OF_ASC_NODE":37.3975,"ARG_OF_PERICENTER":93.3642,"MEAN_ANOMALY":266.7664,"EPHEMERIS_TYPE":0,"CLASSIFICATION_TYPE":"U","NORAD_CAT_ID":55165,"ELEMENT_SET_NO":999,"REV_AT_EPOCH":13718,"BSTAR":-0.00034637,"MEAN_MOTION_DOT":-1.13e-6,"MEAN_MOTION_DDOT":0},{"OBJECT_NAME":"ONEWEB-0625","OBJECT_ID":"2023-004AC","EPOCH":"2025-10-24T18:11:11.574240","MEAN_MOTION":13.17648266,"ECCENTRICITY":0.000173,"INCLINATION":87.911,"RA_OF_ASC_NODE":52.6987,"ARG_OF_PERICENTER":105.2647,"MEAN_ANOMALY":254.8676,"EPHEMERIS_TYPE":0,"CLASSIFICATION_TYPE":"U","NORAD_CAT_ID":55166,"ELEMENT_SET_NO":999,"REV_AT_EPOCH":13657,"BSTAR":-0.00011719,"MEAN_MOTION_DOT":-3.3e-7,"MEAN_MOTION_DDOT":0},{"OBJECT_NAME":"ONEWEB-0626","OBJECT_ID":"2023-004AD","EPOCH":"2025-10-24T17:56:38.154912","MEAN_MOTION":13.17649209,"ECCENTRICITY":0.0002259,"INCLINATION":87.9114,"RA_OF_ASC_NODE":52.7005,"ARG_OF_PERICENTER":102.0707,"MEAN_ANOMALY":258.0678,"EPHEMERIS_TYPE":0,"CLASSIFICATION_TYPE":"U","NORAD_CAT_ID":55167,"ELEMENT_SET_NO":999,"REV_AT_EPOCH":13657,"BSTAR":6.9998e-5,"MEAN_MOTION_DOT":4.0e-7,"MEAN_MOTION_DDOT":0}]
